ONEWEB-0082             
1 45452U 20020AE  25309.24957956  .00000469  00000+0  12874-2 0  9992
2 45452  87.8866  65.6296 0001610 109.5333 250.5969 13.11417592273328
ONEWEB-0050             
1 45453U 20020AF  25309.14931233  .00003601  00000+0  37879-3 0  9996
2 45453  88.9195 263.7776 0005795  73.1161 287.0703 14.89209823307021
ONEWEB-0034             
1 45454U 20020AG  25309.27076667 -.00000352  00000+0 -10282-2 0  9992
2 45454  87.8858  65.6432 0001630 101.8482 258.2829 13.11414895273249
ONEWEB-0060             
1 45455U 20020AH  25309.08937469  .00000571  00000+0  15757-2 0  9991
2 45455  87.8844  65.7006 0002024 134.3368 225.7926 13.11416217273174
ONEWEB-0086             
1 45456U 20020AJ  25309.06816232 -.00000040  00000+0 -14927-3 0  9996
2 45456  87.8859  65.6801 0002229 114.7235 245.4126 13.11420304273235
ONEWEB-0088             
1 45457U 20020AK  25309.27501486 -.00000445  00000+0 -12909-2 0  9998
2 45457  87.8870  65.5906 0001475 102.0649 258.0644 13.11418545273199
ONEWEB-0102             
1 47258U 20100A   25309.22623477  .00000407  00000+0  10971-2 0  9991
2 47258  87.8979  35.1780 0001866  97.2274 262.9067 13.12442673235355
ONEWEB-0109             
1 47259U 20100B   25309.23434152  .00000520  00000+0  14096-2 0  9991
2 47259  87.8977  35.1440 0001841  99.5333 260.6004 13.12441905235185
ONEWEB-0110             
1 47260U 20100C   25309.26028714 -.00000271  00000+0 -78746-3 0  9997
2 47260  87.8974  35.1224 0001914 108.5820 251.5517 13.12442678235352
ONEWEB-0111             
1 47261U 20100D   25309.29109896 -.00000222  00000+0 -65291-3 0  9999
2 47261  87.8975  35.1344 0001764  99.4905 260.6423 13.12443988235196
ONEWEB-0114             
1 47262U 20100E   25309.24569572  .00000344  00000+0  92156-3 0  9999
2 47262  87.8976  35.1374 0001886  92.7982 267.3363 13.12442834235148
ONEWEB-0117             
1 47263U 20100F   25309.23758536  .00000484  00000+0  13113-2 0  9999
2 47263  87.8977  35.1370 0001776 102.8848 257.2480 13.12441747235159
ONEWEB-0118             
1 47264U 20100G   25309.27002049 -.00000356  00000+0 -10262-2 0  9997
2 47264  87.8978  35.1299 0001610  90.7511 269.3802 13.12442532235357
ONEWEB-0119             
1 47265U 20100H   25309.22136286  .00000424  00000+0  11444-2 0  9991
2 47265  87.8973  35.1758 0001811 101.3797 258.7535 13.12443936235322
ONEWEB-0120             
1 47266U 20100J   25309.24421580  .00000367  00000+0  98613-3 0  9998
2 47266  87.8969  35.1737 0001818  98.7183 261.4152 13.12442210235353
ONEWEB-0121             
1 47267U 20100K   25309.23272114  .00000450  00000+0  12157-2 0  9996
2 47267  87.8973  35.1416 0001831 106.0081 254.1250 13.12441635235266
