[{"OBJECT_NAME":"ONEWEB-0082","OBJECT_ID":"2020-020AE","EPOCH":"2025-11-05T05:59:23.673984","MEAN_MOTION":13.11417592,"ECCENTRICITY":0.00016109,"INCLINATION":87.8866,"RA_OF_ASC_NODE":65.6296,"ARG_OF_PERICENTER":109.5333,"MEAN_ANOMALY":250.5969,"EPHEMERIS_TYPE":0,"CLASSIFICATION_TYPE":"U","NORAD_CAT_ID":45452,"ELEMENT_SET_NO":999,"REV_AT_EPOCH":27332,"BSTAR":0.0012873758,"MEAN_MOTION_DOT":4.69e-6,"MEAN_MOTION_DDOT":0},{"OBJECT_NAME":"ONEWEB-0050","OBJECT_ID":"2020-020AF","EPOCH":"2025-11-05T03:35:00.585312","MEAN_MOTION":14.89209823,"ECCENTRICITY":0.00057954,"INCLINATION":88.9195,"RA_OF_ASC_NODE":263.7776,"ARG_OF_PERICENTER":73.1161,"MEAN_ANOMALY":287.0703,"EPHEMERIS_TYPE":0,"CLASSIFICATION_TYPE":"U","NORAD_CAT_ID":45453,"ELEMENT_SET_NO":999,"REV_AT_EPOCH":30702,"BSTAR":0.00037878587,"MEAN_MOTION_DOT":3.601e-5,"MEAN_MOTION_DDOT":0},{"OBJECT_NAME":"ONEWEB-0034","OBJECT_ID":"2020-020AG","EPOCH":"2025-11-05T06:29:54.240288","MEAN_MOTION":13.11414895,"ECCENTRICITY":0.000163,"INCLINATION":87.8858,"RA_OF_ASC_NODE":65.6432,"ARG_OF_PERICENTER":101.8482,"MEAN_ANOMALY":258.2829,"EPHEMERIS_TYPE":0,"CLASSIFICATION_TYPE":"U","NORAD_CAT_ID":45454,"ELEMENT_SET_NO":999,"REV_AT_EPOCH":27324,"BSTAR":-0.001028197,"MEAN_MOTION_DOT":-3.52e-6,"MEAN_MOTION_DDOT":0},{"OBJECT_NAME":"ONEWEB-0060","OBJECT_ID":"2020-020AH","EPOCH":"2025-11-05T02:08:41.973216","MEAN_MOTION":13.11416217,"ECCENTRICITY":0.00020242,"INCLINATION":87.8844,"RA_OF_ASC_NODE":65.7006,"ARG_OF_PERICENTER":134.3368,"MEAN_ANOMALY":225.7926,"EPHEMERIS_TYPE":0,"CLASSIFICATION_TYPE":"U","NORAD_CAT_ID":45455,"ELEMENT_SET_NO":999,"REV_AT_EPOCH":27317,"BSTAR":0.0015756894,"MEAN_MOTION_DOT":5.71e-6,"MEAN_MOTION_DDOT":0},{"OBJECT_NAME":"ONEWEB-0086","OBJECT_ID":"2020-020AJ","EPOCH":"2025-11-05T01:38:09.224448","MEAN_MOTION":13.11420304,"ECCENTRICITY":0.00022295,"INCLINATION":87.8859,"RA_OF_ASC_NODE":65.6801,"ARG_OF_PERICENTER":114.7235,"MEAN_ANOMALY":245.4126,"EPHEMERIS_TYPE":0,"CLASSIFICATION_TYPE":"U","NORAD_CAT_ID":45456,"ELEMENT_SET_NO":999,"REV_AT_EPOCH":27323,"BSTAR":-0.00014926568,"MEAN_MOTION_DOT":-4.0e-7,"MEAN_MOTION_DDOT":0},{"OBJECT_NAME":"ONEWEB-0088","OBJECT_ID":"2020-020AK","EPOCH":"2025-11-05T06:36:01.283904","MEAN_MOTION":13.11418545,"ECCENTRICITY":0.00014751,"INCLINATION":87.887,"RA_OF_ASC_NODE":65.5906,"ARG_OF_PERICENTER":102.0649,"MEAN_ANOMALY":258.0644,"EPHEMERIS_TYPE":0,"CLASSIFICATION_TYPE":"U","NORAD_CAT_ID":45457,"ELEMENT_SET_NO":999,"REV_AT_EPOCH":27319,"BSTAR":-0.0012908567,"MEAN_MOTION_DOT":-4.45e-6,"MEAN_MOTION_DDOT":0},{"OBJECT_NAME":"ONEWEB-0102","OBJECT_ID":"2020-100A","EPOCH":"2025-11-05T05:25:46.684128","MEAN_MOTION":13.12442673,"ECCENTRICITY":0.00018666,"INCLINATION":87.8979,"RA_OF_ASC_NODE":35.178,"ARG_OF_PERICENTER":97.2274,"MEAN_ANOMALY":262.9067,"EPHEMERIS_TYPE":0,"CLASSIFICATION_TYPE":"U","NORAD_CAT_ID":47258,"ELEMENT_SET_NO":999,"REV_AT_EPOCH":23535,"BSTAR":0.0010971285,"MEAN_MOTION_DOT":4.07e-6,"MEAN_MOTION_DDOT":0},{"OBJECT_NAME":"ONEWEB-0109","OBJECT_ID":"2020-100B","EPOCH":"2025-11-05T05:37:27.107328","MEAN_MOTION":13.12441905,"ECCENTRICITY":0.00018413,"INCLINATION":87.8977,"RA_OF_ASC_NODE":35.144,"ARG_OF_PERICENTER":99.5333,"MEAN_ANOMALY":260.6004,"EPHEMERIS_TYPE":0,"CLASSIFICATION_TYPE":"U","NORAD_CAT_ID":47259,"ELEMENT_SET_NO":999,"REV_AT_EPOCH":23518,"BSTAR":0.0014095578,"MEAN_MOTION_DOT":5.2e-6,"MEAN_MOTION_DDOT":0},{"OBJECT_NAME":"ONEWEB-0110","OBJECT_ID":"2020-100C","EPOCH":"2025-11-05T06:14:48.808896","MEAN_MOTION":13.12442678,"ECCENTRICITY":0.00019144,"INCLINATION":87.8974,"RA_OF_ASC_NODE":35.1224,"ARG_OF_PERICENTER":108.582,"MEAN_ANOMALY":251.5517,"EPHEMERIS_TYPE":0,"CLASSIFICATION_TYPE":"U","NORAD_CAT_ID":47260,"ELEMENT_SET_NO":999,"REV_AT_EPOCH":23535,"BSTAR":-0.00078746211,"MEAN_MOTION_DOT":-2.71e-6,"MEAN_MOTION_DDOT":0},{"OBJECT_NAME":"ONEWEB-0111","OBJECT_ID":"2020-100D","EPOCH":"2025-11-05T06:59:10.950144","MEAN_MOTION":13.12443988,"ECCENTRICITY":0.00017642,"INCLINATION":87.8975,"RA_OF_ASC_NODE":35.1344,"ARG_OF_PERICENTER":99.4905,"MEAN_ANOMALY":260.6423,"EPHEMERIS_TYPE":0,"CLASSIFICATION_TYPE":"U","NORAD_CAT_ID":47261,"ELEMENT_SET_NO":999,"REV_AT_EPOCH":23519,"BSTAR":-0.00065290719,"MEAN_MOTION_DOT":-2.22e-6,"MEAN_MOTION_DDOT":0},{"OBJECT_NAME":"ONEWEB-0114","OBJECT_ID":"2020-100E","EPOCH":"2025-11-05T05:53:48.110208","MEAN_MOTION":13.12442834,"ECCENTRICITY":0.00018869,"INCLINATION":87.8976,"RA_OF_ASC_NODE":35.1374,"ARG_OF_PERICENTER":92.7982,"MEAN_ANOMALY":267.3363,"EPHEMERIS_TYPE":0,"CLASSIFICATION_TYPE":"U","NORAD_CAT_ID":47262,"ELEMENT_SET_NO":999,"REV_AT_EPOCH":23514,"BSTAR":0.00092156046,"MEAN_MOTION_DOT":3.44e-6,"MEAN_MOTION_DDOT":0},{"OBJECT_NAME":"ONEWEB-0117","OBJECT_ID":"2020-100F","EPOCH":"2025-11-05T05:42:07.375104","MEAN_MOTION":13.12441747,"ECCENTRICITY":0.00017766,"INCLINATION":87.8977,"RA_OF_ASC_NODE":35.137,"ARG_OF_PERICENTER":102.8848,"MEAN_ANOMALY":257.248,"EPHEMERIS_TYPE":0,"CLASSIFICATION_TYPE":"U","NORAD_CAT_ID":47263,"ELEMENT_SET_NO":999,"REV_AT_EPOCH":23515,"BSTAR":0.001311315,"MEAN_MOTION_DOT":4.84e-6,"MEAN_MOTION_DDOT":0},{"OBJECT_NAME":"ONEWEB-0118","OBJECT_ID":"2020-100G","EPOCH":"2025-11-05T06:28:49.770336","MEAN_MOTION":13.12442532,"ECCENTRICITY":0.00016101,"INCLINATION":87.8978,"RA_OF_ASC_NODE":35.1299,"ARG_OF_PERICENTER":90.7511,"MEAN_ANOMALY":269.3802,"EPHEMERIS_TYPE":0,"CLASSIFICATION_TYPE":"U","NORAD_CAT_ID":47264,"ELEMENT_SET_NO":999,"REV_AT_EPOCH":23535,"BSTAR":-0.0010262497,"MEAN_MOTION_DOT":-3.56e-6,"MEAN_MOTION_DDOT":0},{"OBJECT_NAME":"ONEWEB-0119","OBJECT_ID":"2020-100H","EPOCH":"2025-11-05T05:18:45.751104","MEAN_MOTION":13.12443936,"ECCENTRICITY":0.00018116,"INCLINATION":87.8973,"RA_OF_ASC_NODE":35.1758,"ARG_OF_PERICENTER":101.3797,"MEAN_ANOMALY":258.7535,"EPHEMERIS_TYPE":0,"CLASSIFICATION_TYPE":"U","NORAD_CAT_ID":47265,"ELEMENT_SET_NO":999,"REV_AT_EPOCH":23532,"BSTAR":0.0011443621,"MEAN_MOTION_DOT":4.24e-6,"MEAN_MOTION_DDOT":0},{"OBJECT_NAME":"ONEWEB-0120","OBJECT_ID":"2020-100J","EPOCH":"2025-11-05T05:51:40.245120","MEAN_MOTION":13.1244221,"ECCENTRICITY":0.00018185,"INCLINATION":87.8969,"RA_OF_ASC_NODE":35.1737,"ARG_OF_PERICENTER":98.7183,"MEAN_ANOMALY":261.4152,"EPHEMERIS_TYPE":0,"CLASSIFICATION_TYPE":"U","NORAD_CAT_ID":47266,"ELEMENT_SET_NO":999,"REV_AT_EPOCH":23535,"BSTAR":0.0009861289,"MEAN_MOTION_DOT":3.67e-6,"MEAN_MOTION_DDOT":0},{"OBJECT_NAME":"ONEWEB-0121","OBJECT_ID":"2020-100K","EPOCH":"2025-11-05T05:35:07.106496","MEAN_MOTION":13.12441635,"ECCENTRICITY":0.00018313,"INCLINATION":87.8973,"RA_OF_ASC_NODE":35.1416,"ARG_OF_PERICENTER":106.0081,"MEAN_ANOMALY":254.125,"EPHEMERIS_TYPE":0,"CLASSIFICATION_TYPE":"U","NORAD_CAT_ID":47267,"ELEMENT_SET_NO":999,"REV_AT_EPOCH":23526,"BSTAR":0.0012157123,"MEAN_MOTION_DOT":4.5e-6,"MEAN_MOTION_DDOT":0}]
